QIANFAN-81              
1 63167U 25046J   25342.93399141  .00000172  00000+0  24684-3 0  9991
2 63167  88.9759 320.2659 0016055 126.7363 233.5265 13.51000984 46976
QIANFAN-82              
1 63168U 25046K   25342.96796674  .00000167  00000+0  23901-3 0  9992
2 63168  88.9759 320.3063 0014021 133.0669 227.1659 13.50974537 46966
QIANFAN-83              
1 63169U 25046L   25342.95207481  .00000192  00000+0  23333-3 0  9992
2 63169  88.9760 320.0917 0015664 120.4208 239.8499 13.61972948 47089
QIANFAN-84              
1 63170U 25046M   25342.92173680  .00000110  00000+0  15165-3 0  9998
2 63170  88.9758 320.4438 0017047 131.0821 229.1806 13.50985801 46887
QIANFAN-85              
1 63171U 25046N   25342.99253141  .00000165  00000+0  23597-3 0  9995
2 63171  88.9759 320.3081 0014393 132.0808 228.1570 13.50975007 46962
QIANFAN-86              
1 63172U 25046P   25342.92679420  .00000173  00000+0  24968-3 0  9993
2 63172  88.9761 320.1770 0012174 135.0490 225.1649 13.50974874 47038
QIANFAN-87              
1 63173U 25046Q   25342.97218307  .00000146  00000+0  20723-3 0  9997
2 63173  88.9757 320.2842 0012947 131.0603 229.1669 13.50972997 46977
QIANFAN-88              
1 63174U 25046R   25342.98852932  .00000153  00000+0  21852-3 0  9999
2 63174  88.9760 320.2369 0013140 138.5119 221.7032 13.50979402 47001
